HORYU-4                 
1 41340U 16012D   20049.90228231  .00000462  00000-0  28310-4 0  9994
2 41340  31.0062  13.0868 0013834  42.4524 317.7180 15.01419093219891
E-ST@R-II               
1 41459U 16025D   20050.28522275  .00001654  00000-0  87827-4 0  9999
2 41459  98.0969 154.1749 0165125 252.4321 105.8808 15.06051199209509
AAUSAT 4                
1 41460U 16025E   20050.26727205  .00001450  00000-0  75711-4 0  9992
2 41460  98.0928 156.0830 0154140 242.7305 115.8161 15.08187477209679
DIWATA-1                
1 41463U 98067HT  20050.37220365  .00128368  18400-4  22414-3 0  9994
2 41463  51.6248  37.0656 0003275  87.5023  71.1841 16.01881890218831
BEESAT-4                
1 41619U 16040W   20050.44043876  .00001486  00000-0  64780-4 0  9993
2 41619  97.3362 112.7121 0009833 233.5781 126.4550 15.23694703191273
CANX-7                  
1 41788U 16059F   20050.52291909  .00005598  00000-0  80219-3 0  9993
2 41788  98.2523 135.5340 0023075 310.5661  49.3400 14.76788357182253
RAVAN                   
1 41849U 16067B   20049.81617261  .00000081  00000-0  11957-4 0  9999
2 41849  97.9238 157.7259 0007787 283.5273  76.5081 14.98445846178704
CELTEE 1                
1 41850U 16067C   20050.23799023  .00000781  00000-0  72952-4 0  9995
2 41850  97.9197 156.2222 0007086 287.4568  72.5878 14.97122608178668
OPTICUBE 04             
1 41851U 16067D   20050.34903087  .00000014  00000-0  65371-5 0  9992
2 41851  97.9181 156.0162 0007721 289.0511  70.9874 14.96880791178666
AEROCUBE 8D             
1 41852U 16067E   20049.82818006  .00000484  00000-0  47511-4 0  9996
2 41852  97.9191 155.3180 0008166 290.6558  69.3788 14.96838998178560
AEROCUBE 8C             
1 41853U 16067F   20050.12431305 -.00000111  00000-0 -43522-5 0  9993
2 41853  97.9198 155.5341 0008598 293.4469  66.5847 14.96810072178603
PROMETHEUS 2-1          
1 41854U 16067G   20050.18482582  .00000467  00000-0  45798-4 0  9991
2 41854  97.9208 155.8519 0008656 291.5948  68.4350 14.97093959178622
PROMETHEUS 2-3          
1 41855U 16067H   20050.11921168  .00000414  00000-0  41154-4 0  9997
2 41855  97.9212 155.8120 0008870 292.3186  67.7094 14.97103402178618
INS-1B                  
1 41954U 17008G   20050.48791455  .00001345  00000-0  57571-4 0  9991
2 41954  97.3698 116.9491 0009166  11.2807 348.8634 15.24483174167244
BGUSAT                  
1 41999U 17008BD  20050.16287564  .00001936  00000-0  75760-4 0  9992
2 41999  97.3797 120.1364 0008339  23.8533 336.3091 15.27002021166749
DIDO-2                  
1 42000U 17008BE  20050.49653583  .00000930  00000-0  40944-4 0  9999
2 42000  97.3707 117.4968 0009144  29.6982 330.4773 15.24279586166640
PEASSS                  
1 42015U 17008BV  20049.83835118  .00000982  00000-0  41757-4 0  9997
2 42015  97.3725 118.2184 0007169  38.7002 321.4748 15.25345101167117
AL-FARABI 1             
1 42016U 17008BW  20049.85693792  .00001294  00000-0  52949-4 0  9992
2 42016  97.3750 119.0940 0007005  37.9529 322.2202 15.26110601167287
NAYIF-1 (EO-88)         
1 42017U 17008BX  20050.16657697  .00001282  00000-0  52430-4 0  9995
2 42017  97.3746 119.4115 0006991  36.7489 323.4227 15.26149116167357
NSIGHT                  
1 42726U 98067MF  20050.44196190  .00100591  00000-0  33879-3 0  9991
2 42726  51.6297 119.3295 0005141  28.4227 331.7058 15.89221367156620
UCLSAT                  
1 42765U 17036A   20050.13571984  .00001076  00000-0  48251-4 0  9994
2 42765  97.3186 107.4905 0013060  87.4609 272.8123 15.23246835147826
LITUANICASAT-2          
1 42768U 17036D   20050.14836035  .00001725  00000-0  74726-4 0  9996
2 42768  97.3234 107.3105 0016422  78.6330 281.6751 15.23607895147677
AALTO-1                 
1 42775U 17036L   20050.10591497  .00000656  00000-0  31955-4 0  9999
2 42775  97.3164 105.6048 0015572  80.5790 279.7206 15.21662307147525
URSA MAIOR              
1 42776U 17036M   20049.84581336  .00000726  00000-0  34889-4 0  9997
2 42776  97.3176 105.5870 0015392  81.2852 279.0127 15.21825292147493
COMPASS 2               
1 42777U 17036N   20050.16258821  .00001483  00000-0  64840-4 0  9996
2 42777  97.3226 107.7775 0013998  79.8474 280.4341 15.23551597147637
DIAMOND RED             
1 42783U 17036U   20050.14372607  .00000854  00000-0  39635-4 0  9995
2 42783  97.3185 106.8845 0013776  89.0053 271.2762 15.22607177147591
PEGASUS                 
1 42784U 17036V   20050.13728103  .00000967  00000-0  44023-4 0  9993
2 42784  97.3190 107.2276 0013638  88.1847 272.0951 15.22955531147611
DIAMOND GREEN           
1 42785U 17036W   20050.14252023  .00000859  00000-0  39837-4 0  9995
2 42785  97.3188 106.9148 0013686  89.6035 270.6770 15.22608971147583
DIAMOND BLUE            
1 42786U 17036X   20050.14173501  .00000852  00000-0  39547-4 0  9990
2 42786  97.3188 106.9104 0013511  89.7264 270.5521 15.22607081147582
NUDTSAT                 
1 42787U 17036Y   20050.09490283  .00001453  00000-0  62486-4 0  9990
2 42787  97.3241 108.3219 0012855  79.1031 281.1646 15.24142284147511
SUCHAI                  
1 42788U 17036Z   20050.39972622  .00001428  00000-0  62729-4 0  9998
2 42788  97.3197 107.9668 0013178  86.2787 273.9956 15.23457568147753
SKCUBE                  
1 42789U 17036AA  20049.77739211  .00001033  00000-0  46335-4 0  9991
2 42789  97.3193 107.2467 0013066  88.3904 271.8829 15.23317929147572
VZLUSAT-1               
1 42790U 17036AB  20049.88609747  .00001455  00000-0  62633-4 0  9992
2 42790  97.3213 108.1129 0012564  86.6861 273.5814 15.24128495147636
ROBUSTA-1B              
1 42792U 17036AD  20050.13986161  .00001137  00000-0  50466-4 0  9990
2 42792  97.3193 107.8152 0012630  87.7516 272.5167 15.23502180147658
CICERO 6                
1 42793U 17036AE  20049.88197878  .00000742  00000-0  34516-4 0  9999
2 42793  97.3173 107.1153 0011954  90.5163 269.7444 15.22937544147661
D-SAT                   
1 42794U 17036AF  20050.13949922  .00000178  00000-0  20638-4 0  9998
2 42794  97.5095  88.6036 0127328  43.7608 317.3618 14.91220078144917
CORVUS BC2              
1 42846U 17042X   20049.93632640 -.00000054  00000-0 -65274-7 0  9998
2 42846  97.5401 298.7594 0008671 325.1737  34.8914 14.92061001141588
CORVUS BC1              
1 42847U 17042Y   20049.73893355 -.00000048  00000-0  50521-6 0  9999
2 42847  97.5404 298.7185 0008323 325.4530  34.6148 14.92161880141556
MIRATA                  
1 43015U 17073C   20050.44413795  .00001240  00000-0  10031-3 0  9990
2 43015  97.7226 327.1753 0255426  76.7861 286.1709 14.79411211121621
MAKERSAT 0              
1 43016U 17073D   20050.30527618  .00000836  00000-0  69307-4 0  9997
2 43016  97.7263 327.2392 0257987  78.0341 284.9664 14.79044830121585
ASTERIA                 
1 43020U 98067NH  20050.51401790  .00114068  00000-0  40184-3 0  9993
2 43020  51.6407 131.5112 0003013   9.3259 350.7802 15.88285915128652
DELLINGR (RBLE)         
1 43021U 98067NJ  20050.53579428  .00017019  00000-0  15771-3 0  9992
2 43021  51.6361 166.1838 0001861 331.5735  28.5159 15.67613895128192
AEROCUBE 7B (OCSD B)    
1 43042U 17071F   20049.88725099  .00003475  00000-0  87635-4 0  9994
2 43042  51.6380 292.8961 0004032 336.7886  23.2917 15.42718411123919
AEROCUBE 7C (OCSD C)    
1 43043U 17071G   20050.14784765  .00004223  00000-0  10453-3 0  9996
2 43043  51.6376 291.6509 0004322 342.0293  18.0539 15.42698201123921
CHEFSAT                 
1 43044U 17071H   20050.34414852  .00008657  00000-0  17909-3 0  9994
2 43044  51.6379 279.6799 0003909 345.4934  14.5941 15.46626293124106
ASGARDIA 1              
1 43049U 17071N   20050.21108562  .00003997  00000-0  99121-4 0  9992
2 43049  51.6390 290.6314 0002217   8.6188 351.4835 15.42789248123931
ISARA                   
1 43050U 17071P   20049.87053567  .00005848  00000-0  12711-3 0  9994
2 43050  51.6366 283.9270 0001897   8.8063 351.2957 15.45844173124003
PROPCUBE 2 (FAUNA)      
1 43052U 17071R   20049.90598770  .00003325  00000-0  83007-4 0  9995
2 43052  51.6384 290.8631 0002070   4.4835 355.6169 15.43169334123904
CORVUS BC3              
1 43118U 18004H   20049.87107435  .00000683  00000-0  31847-4 0  9994
2 43118  97.4578 121.0538 0011957 109.8252 250.4275 15.23179561116798
MICROMAS-2A             
1 43131U 18004W   20049.83993987  .00001677  00000-0  70343-4 0  9998
2 43131  97.4617 122.3570 0010824 109.7403 250.5003 15.24860629116867
SPACEBEE-4              
1 43139U 18004AE  20050.16471862  .00002722  00000-0  10870-3 0  9997
2 43139  97.4646 123.5934 0010189 110.2719 249.9615 15.25978054116959
SPACEBEE-3              
1 43140U 18004AF  20049.84595337  .00003114  00000-0  12118-3 0  9999
2 43140  97.4658 123.7874 0009953 110.8013 249.4293 15.26726710116946
SPACEBEE-2              
1 43141U 18004AG  20049.84760505  .00003492  00000-0  13453-3 0  9993
2 43141  97.4669 123.9765 0009944 110.3212 249.9096 15.26985666116950
SPACEBEE-1              
1 43142U 18004AH  20050.43047201  .00005013  00000-0  19013-3 0  9991
2 43142  97.4673 124.7555 0009908 108.6770 251.5545 15.27286179117044
CICERO 7                
1 43143U 18004AJ  20049.84584247  .00001471  00000-0  61923-4 0  9993
2 43143  97.4598 122.5652 0008925 116.9726 243.2424 15.24941040116883
GOMX-4B                 
1 43196U 18015E   20049.80248759  .00000327  00000-0  16353-4 0  9990
2 43196  97.4191 179.4079 0019421 161.0762 199.1203 15.24145555113673
GOMX-4A                 
1 43197U 18015F   20050.49848801  .00000620  00000-0  28169-4 0  9996
2 43197  97.4185 180.1518 0019365 159.2479 265.3184 15.24328655113796
1KUNS-PF                
1 43466U 98067NP  20050.46417709  .00068224  00000-0  35416-3 0  9992
2 43466  51.6310 156.5080 0002324 349.1271  10.9680 15.80352725101570
UBAKUSAT                
1 43467U 98067NQ  20050.51693312  .00028172  00000-0  23647-3 0  9996
2 43467  51.6338 171.2356 0001707 303.0140  57.0693 15.69685456101392
